[
  {
    "OBJECT_NAME": "STARLINK-2607",
    "OBJECT_ID": "2021-038AQ",
    "EPOCH": "2023-03-07T22:21:06.523200",
    "MEAN_MOTION": 15.06426268,
    "ECCENTRICITY": 0.0001184,
    "INCLINATION": 53.0528,
    "RA_OF_ASC_NODE": 229.6477,
    "ARG_OF_PERICENTER": 93.44,
    "MEAN_ANOMALY": 266.6724,
    "EPHEMERIS_TYPE": 0,
    "CLASSIFICATION_TYPE": "U",
    "NORAD_CAT_ID": 48391,
    "ELEMENT_SET_NO": 999,
    "REV_AT_EPOCH": 10306,
    "BSTAR": 0.0017315,
    "MEAN_MOTION_DOT": 0.00025622,
    "MEAN_MOTION_DDOT": 0
  },
  {
    "OBJECT_NAME": "STARLINK-2605",
    "OBJECT_ID": "2021-038AR",
    "EPOCH": "2023-03-07T20:40:15.795552",
    "MEAN_MOTION": 15.064105,
    "ECCENTRICITY": 0.0001344,
    "INCLINATION": 53.0542,
    "RA_OF_ASC_NODE": 229.9534,
    "ARG_OF_PERICENTER": 82.0189,
    "MEAN_ANOMALY": 278.0953,
    "EPHEMERIS_TYPE": 0,
    "CLASSIFICATION_TYPE": "U",
    "NORAD_CAT_ID": 48392,
    "ELEMENT_SET_NO": 999,
    "REV_AT_EPOCH": 10305,
    "BSTAR": 0.00033165,
    "MEAN_MOTION_DOT": 4.663e-5,
    "MEAN_MOTION_DDOT": 0
  },
  {
    "OBJECT_NAME": "STARLINK-2602",
    "OBJECT_ID": "2021-038AS",
    "EPOCH": "2023-03-07T20:34:57.391680",
    "MEAN_MOTION": 15.06409077,
    "ECCENTRICITY": 0.0001424,
    "INCLINATION": 53.0535,
    "RA_OF_ASC_NODE": 229.9694,
    "ARG_OF_PERICENTER": 90.4308,
    "MEAN_ANOMALY": 269.6844,
    "EPHEMERIS_TYPE": 0,
    "CLASSIFICATION_TYPE": "U",
    "NORAD_CAT_ID": 48393,
    "ELEMENT_SET_NO": 999,
    "REV_AT_EPOCH": 10305,
    "BSTAR": 0.00030311,
    "MEAN_MOTION_DOT": 4.237e-5,
    "MEAN_MOTION_DDOT": 0
  },
  {
    "OBJECT_NAME": "STARLINK-2573",
    "OBJECT_ID": "2021-038AT",
    "EPOCH": "2023-03-07T20:29:38.881536",
    "MEAN_MOTION": 15.06409001,
    "ECCENTRICITY": 0.000125,
    "INCLINATION": 53.0532,
    "RA_OF_ASC_NODE": 229.9878,
    "ARG_OF_PERICENTER": 89.2086,
    "MEAN_ANOMALY": 270.9046,
    "EPHEMERIS_TYPE": 0,
    "CLASSIFICATION_TYPE": "U",
    "NORAD_CAT_ID": 48394,
    "ELEMENT_SET_NO": 999,
    "REV_AT_EPOCH": 10242,
    "BSTAR": 0.00026384,
    "MEAN_MOTION_DOT": 3.652e-5,
    "MEAN_MOTION_DDOT": 0
  },
  {
    "OBJECT_NAME": "STARLINK-2574",
    "OBJECT_ID": "2021-038AU",
    "EPOCH": "2023-03-07T12:00:13.355712",
    "MEAN_MOTION": 15.06400811,
    "ECCENTRICITY": 0.0001565,
    "INCLINATION": 53.0533,
    "RA_OF_ASC_NODE": 232.2033,
    "ARG_OF_PERICENTER": 81.1823,
    "MEAN_ANOMALY": 278.9343,
    "EPHEMERIS_TYPE": 0,
    "CLASSIFICATION_TYPE": "U",
    "NORAD_CAT_ID": 48395,
    "ELEMENT_SET_NO": 999,
    "REV_AT_EPOCH": 10299,
    "BSTAR": 0.00054987,
    "MEAN_MOTION_DOT": 7.918e-5,
    "MEAN_MOTION_DDOT": 0
  },
  {
    "OBJECT_NAME": "STARLINK-2575",
    "OBJECT_ID": "2021-038AV",
    "EPOCH": "2023-03-07T20:24:20.895840",
    "MEAN_MOTION": 15.06397623,
    "ECCENTRICITY": 0.000146,
    "INCLINATION": 53.049,
    "RA_OF_ASC_NODE": 230.012,
    "ARG_OF_PERICENTER": 91.1158,
    "MEAN_ANOMALY": 268.9998,
    "EPHEMERIS_TYPE": 0,
    "CLASSIFICATION_TYPE": "U",
    "NORAD_CAT_ID": 48396,
    "ELEMENT_SET_NO": 999,
    "REV_AT_EPOCH": 10242,
    "BSTAR": 0.00076496,
    "MEAN_MOTION_DOT": 0.0001113,
    "MEAN_MOTION_DDOT": 0
  },
  {
    "OBJECT_NAME": "STARLINK-2590",
    "OBJECT_ID": "2021-038AW",
    "EPOCH": "2023-03-07T17:07:57.374400",
    "MEAN_MOTION": 15.06399394,
    "ECCENTRICITY": 0.0001054,
    "INCLINATION": 53.0518,
    "RA_OF_ASC_NODE": 230.6228,
    "ARG_OF_PERICENTER": 85.7383,
    "MEAN_ANOMALY": 274.3726,
    "EPHEMERIS_TYPE": 0,
    "CLASSIFICATION_TYPE": "U",
    "NORAD_CAT_ID": 48397,
    "ELEMENT_SET_NO": 999,
    "REV_AT_EPOCH": 10303,
    "BSTAR": 0.00046436,
    "MEAN_MOTION_DOT": 6.642e-5,
    "MEAN_MOTION_DDOT": 0
  },
  {
    "OBJECT_NAME": "STARLINK-2588",
    "OBJECT_ID": "2021-038AX",
    "EPOCH": "2023-03-07T20:13:43.401216",
    "MEAN_MOTION": 15.06407913,
    "ECCENTRICITY": 0.0001333,
    "INCLINATION": 53.0511,
    "RA_OF_ASC_NODE": 230.0449,
    "ARG_OF_PERICENTER": 81.9547,
    "MEAN_ANOMALY": 278.1594,
    "EPHEMERIS_TYPE": 0,
    "CLASSIFICATION_TYPE": "U",
    "NORAD_CAT_ID": 48398,
    "ELEMENT_SET_NO": 999,
    "REV_AT_EPOCH": 10242,
    "BSTAR": 0.00025281,
    "MEAN_MOTION_DOT": 3.487e-5,
    "MEAN_MOTION_DDOT": 0
  },
  {
    "OBJECT_NAME": "STARLINK-2587",
    "OBJECT_ID": "2021-038AY",
    "EPOCH": "2023-03-07T16:57:20.399040",
    "MEAN_MOTION": 15.06410339,
    "ECCENTRICITY": 9.08e-5,
    "INCLINATION": 53.0523,
    "RA_OF_ASC_NODE": 230.651,
    "ARG_OF_PERICENTER": 102.411,
    "MEAN_ANOMALY": 257.6981,
    "EPHEMERIS_TYPE": 0,
    "CLASSIFICATION_TYPE": "U",
    "NORAD_CAT_ID": 48399,
    "ELEMENT_SET_NO": 999,
    "REV_AT_EPOCH": 10302,
    "BSTAR": 0.00093182,
    "MEAN_MOTION_DOT": 0.00013629,
    "MEAN_MOTION_DDOT": 0
  },
  {
    "OBJECT_NAME": "STARLINK-2576",
    "OBJECT_ID": "2021-038AZ",
    "EPOCH": "2023-03-07T12:05:25.501632",
    "MEAN_MOTION": 15.06391544,
    "ECCENTRICITY": 0.0001129,
    "INCLINATION": 53.0523,
    "RA_OF_ASC_NODE": 231.5608,
    "ARG_OF_PERICENTER": 86.0935,
    "MEAN_ANOMALY": 274.0183,
    "EPHEMERIS_TYPE": 0,
    "CLASSIFICATION_TYPE": "U",
    "NORAD_CAT_ID": 48400,
    "ELEMENT_SET_NO": 999,
    "REV_AT_EPOCH": 10178,
    "BSTAR": 0.00012031,
    "MEAN_MOTION_DOT": 1.511e-5,
    "MEAN_MOTION_DDOT": 0
  },
  {
    "OBJECT_NAME": "STARLINK-2571",
    "OBJECT_ID": "2021-038BA",
    "EPOCH": "2023-03-07T17:45:06.453792",
    "MEAN_MOTION": 15.06416346,
    "ECCENTRICITY": 0.0001453,
    "INCLINATION": 53.0522,
    "RA_OF_ASC_NODE": 230.519,
    "ARG_OF_PERICENTER": 85.3968,
    "MEAN_ANOMALY": 274.7187,
    "EPHEMERIS_TYPE": 0,
    "CLASSIFICATION_TYPE": "U",
    "NORAD_CAT_ID": 48401,
    "ELEMENT_SET_NO": 999,
    "REV_AT_EPOCH": 10181,
    "BSTAR": 0.00018808,
    "MEAN_MOTION_DOT": 2.522e-5,
    "MEAN_MOTION_DDOT": 0
  },
  {
    "OBJECT_NAME": "STARLINK-2560",
    "OBJECT_ID": "2021-038BB",
    "EPOCH": "2023-03-07T18:20:53.732256",
    "MEAN_MOTION": 15.0641019,
    "ECCENTRICITY": 0.0001142,
    "INCLINATION": 53.0524,
    "RA_OF_ASC_NODE": 230.3857,
    "ARG_OF_PERICENTER": 85.9723,
    "MEAN_ANOMALY": 274.1396,
    "EPHEMERIS_TYPE": 0,
    "CLASSIFICATION_TYPE": "U",
    "NORAD_CAT_ID": 48402,
    "ELEMENT_SET_NO": 999,
    "REV_AT_EPOCH": 10182,
    "BSTAR": 0.00021715,
    "MEAN_MOTION_DOT": 2.955e-5,
    "MEAN_MOTION_DDOT": 0
  },
  {
    "OBJECT_NAME": "STARLINK-2561",
    "OBJECT_ID": "2021-038BC",
    "EPOCH": "2023-03-07T21:28:02.104320",
    "MEAN_MOTION": 15.06404502,
    "ECCENTRICITY": 0.0001119,
    "INCLINATION": 53.0536,
    "RA_OF_ASC_NODE": 229.8052,
    "ARG_OF_PERICENTER": 103.7966,
    "MEAN_ANOMALY": 256.3147,
    "EPHEMERIS_TYPE": 0,
    "CLASSIFICATION_TYPE": "U",
    "NORAD_CAT_ID": 48403,
    "ELEMENT_SET_NO": 999,
    "REV_AT_EPOCH": 10243,
    "BSTAR": 0.0017531,
    "MEAN_MOTION_DOT": 0.00025931,
    "MEAN_MOTION_DDOT": 0
  },
  {
    "OBJECT_NAME": "STARLINK-2593",
    "OBJECT_ID": "2021-038BD",
    "EPOCH": "2023-03-07T21:22:43.129344",
    "MEAN_MOTION": 15.06407338,
    "ECCENTRICITY": 0.0001087,
    "INCLINATION": 53.0511,
    "RA_OF_ASC_NODE": 229.828,
    "ARG_OF_PERICENTER": 90.1274,
    "MEAN_ANOMALY": 269.984,
    "EPHEMERIS_TYPE": 0,
    "CLASSIFICATION_TYPE": "U",
    "NORAD_CAT_ID": 48404,
    "ELEMENT_SET_NO": 999,
    "REV_AT_EPOCH": 10184,
    "BSTAR": 0.00018621,
    "MEAN_MOTION_DOT": 2.494e-5,
    "MEAN_MOTION_DDOT": 0
  }
]
