STARLINK-2607           
1 48391U 21038AQ  23066.93132550  .00025622  00000+0  17315-2 0  9999
2 48391  53.0528 229.6477 0001184  93.4400 266.6724 15.06426268103064
STARLINK-2605           
1 48392U 21038AR  23066.86129393  .00004663  00000+0  33165-3 0  9997
2 48392  53.0542 229.9534 0001344  82.0189 278.0953 15.06410500103056
STARLINK-2602           
1 48393U 21038AS  23066.85760870  .00004237  00000+0  30311-3 0  9995
2 48393  53.0535 229.9694 0001424  90.4308 269.6844 15.06409077103053
STARLINK-2573           
1 48394U 21038AT  23066.85392224  .00003652  00000+0  26384-3 0  9995
2 48394  53.0532 229.9878 0001250  89.2086 270.9046 15.06409001102427
STARLINK-2574           
1 48395U 21038AU  23066.50015458  .00007918  00000+0  54987-3 0  9998
2 48395  53.0533 232.2033 0001565  81.1823 278.9343 15.06400811102998
STARLINK-2575           
1 48396U 21038AV  23066.85024185  .00011130  00000+0  76496-3 0  9994
2 48396  53.0490 230.0120 0001460  91.1158 268.9998 15.06397623102429
STARLINK-2590           
1 48397U 21038AW  23066.71385850  .00006642  00000+0  46436-3 0  9992
2 48397  53.0518 230.6228 0001054  85.7383 274.3726 15.06399394103039
STARLINK-2588           
1 48398U 21038AX  23066.84286344  .00003487  00000+0  25281-3 0  9994
2 48398  53.0511 230.0449 0001333  81.9547 278.1594 15.06407913102426
STARLINK-2587           
1 48399U 21038AY  23066.70648610  .00013629  00000+0  93182-3 0  9992
2 48399  53.0523 230.6510 0000908 102.4110 257.6981 15.06410339103022
STARLINK-2576           
1 48400U 21038AZ  23066.50376738  .00001511  00000+0  12031-3 0  9993
2 48400  53.0523 231.5608 0001129  86.0935 274.0183 15.06391544101785
STARLINK-2571           
1 48401U 21038BA  23066.73965803  .00002522  00000+0  18808-3 0  9997
2 48401  53.0522 230.5190 0001453  85.3968 274.7187 15.06416346101811
STARLINK-2560           
1 48402U 21038BB  23066.76451079  .00002955  00000+0  21715-3 0  9997
2 48402  53.0524 230.3857 0001142  85.9723 274.1396 15.06410190101820
STARLINK-2561           
1 48403U 21038BC  23066.89446880  .00025931  00000+0  17531-2 0  9995
2 48403  53.0536 229.8052 0001119 103.7966 256.3147 15.06404502102430
STARLINK-2593           
1 48404U 21038BD  23066.89077696  .00002494  00000+0  18621-3 0  9992
2 48404  53.0511 229.8280 0001087  90.1274 269.9840 15.06407338101846
